STARLINK-34445          
1 64457U 25130V   26068.37209862  .00025144  00000+0  85833-3 0  9991
2 64457  53.1602  90.0647 0001478  79.5810 280.5358 15.30195162 40650
2025-313BE              
1 67482U 25313BE  26068.69721505  .00077178  00000+0  26504-2 0  9996
2 67482  97.3989 145.3568 0007208 335.3714  24.7181 15.29801687  7972
